{
  "type": "FeatureCollection",
  "features": [
    {
      "type": "Feature",
      "properties": {
        "norad_id": 66990,
        "name": "TJS-22",
        "group": "last-30-days",
        "lat": -0.8745440925146422,
        "lon": -100.45064037368309,
        "alt_km": 35768.30414042331,
        "timestamp": "2025-12-19T06:59:42.652851+00:00",
        "meta_object_name": "TJS-22",
        "meta_object_id": "2025-290A",
        "meta_epoch": "2025-12-18T08:47:46.788864",
        "meta_mean_motion": 1.00278812,
        "meta_eccentricity": 0.00037476,
        "meta_inclination": 1.9747,
        "meta_ra_of_asc_node": 285.0097,
        "meta_arg_of_pericenter": 334.5902,
        "meta_mean_anomaly": 26.0346,
        "meta_ephemeris_type": 0,
        "meta_classification_type": "U",
        "meta_norad_cat_id": 66990,
        "meta_element_set_no": 999,
        "meta_rev_at_epoch": 21,
        "meta_bstar": 0,
        "meta_mean_motion_dot": 1.9e-07,
        "meta_mean_motion_ddot": 0,
        "tle_line1": "1 66990U 25290A   25352.36651376  .00000019  00000+0  00000+0 0  9990",
        "tle_line2": "2 66990   1.9747 285.0097 0003747 334.5902  26.0346  1.00278812   211"
      },
      "geometry": {
        "type": "Point",
        "coordinates": [
          -100.45064037368309,
          -0.8745440925146422
        ]
      }
    },
    {
      "type": "Feature",
      "properties": {
        "norad_id": 66991,
        "name": "CZ-3B R/B",
        "group": "last-30-days",
        "lat": 22.54990445277794,
        "lon": 69.13340223479558,
        "alt_km": 1783.88435076922,
        "timestamp": "2025-12-19T06:59:42.652865+00:00",
        "meta_object_name": "CZ-3B R/B",
        "meta_object_id": "2025-290B",
        "meta_epoch": "2025-12-15T17:23:33.043200",
        "meta_mean_motion": 2.38388611,
        "meta_eccentricity": 0.7240884,
        "meta_inclination": 28.4636,
        "meta_ra_of_asc_node": 300.4666,
        "meta_arg_of_pericenter": 182.7002,
        "meta_mean_anomaly": 168.625,
        "meta_ephemeris_type": 0,
        "meta_classification_type": "U",
        "meta_norad_cat_id": 66991,
        "meta_element_set_no": 999,
        "meta_rev_at_epoch": 16,
        "meta_bstar": 0.00075879,
        "meta_mean_motion_dot": 0.00057911,
        "meta_mean_motion_ddot": -2.0514e-07,
        "tle_line1": "1 66991U 25290B   25349.72468800  .00057911 -20514-6  75879-3 0  9998",
        "tle_line2": "2 66991  28.4636 300.4666 7240884 182.7002 168.6250  2.38388611   165"
      },
      "geometry": {
        "type": "Point",
        "coordinates": [
          69.13340223479558,
          22.54990445277794
        ]
      }
    },
    {
      "type": "Feature",
      "properties": {
        "norad_id": 66993,
        "name": "2025-292A",
        "group": "last-30-days",
        "lat": 0.020262812233566865,
        "lon": -114.21773472406927,
        "alt_km": 552.418036548157,
        "timestamp": "2025-12-19T06:59:42.652876+00:00",
        "meta_object_name": "2025-292A",
        "meta_object_id": "2025-292A",
        "meta_epoch": "2025-12-18T22:12:57.955392",
        "meta_mean_motion": 15.04538531,
        "meta_eccentricity": 0.00138654,
        "meta_inclination": 97.653,
        "meta_ra_of_asc_node": 65.4173,
        "meta_arg_of_pericenter": 249.4527,
        "meta_mean_anomaly": 110.5212,
        "meta_ephemeris_type": 0,
        "meta_classification_type": "U",
        "meta_norad_cat_id": 66993,
        "meta_element_set_no": 999,
        "meta_rev_at_epoch": 132,
        "meta_bstar": 0.0002302866,
        "meta_mean_motion_dot": 3.172e-05,
        "meta_mean_motion_ddot": 0,
        "tle_line1": "1 66993U 25292A   25352.92567078  .00003172  00000+0  23029-3 0  9995",
        "tle_line2": "2 66993  97.6530  65.4173 0013865 249.4527 110.5212 15.04538531  1320"
      },
      "geometry": {
        "type": "Point",
        "coordinates": [
          -114.21773472406927,
          0.020262812233566865
        ]
      }
    },
    {
      "type": "Feature",
      "properties": {
        "norad_id": 66994,
        "name": "2025-292B",
        "group": "last-30-days",
        "lat": -1.4326171889385202,
        "lon": -114.41163360732627,
        "alt_km": 552.3671031531267,
        "timestamp": "2025-12-19T06:59:42.652886+00:00",
        "meta_object_name": "2025-292B",
        "meta_object_id": "2025-292B",
        "meta_epoch": "2025-12-18T22:12:35.512128",
        "meta_mean_motion": 15.0457913,
        "meta_eccentricity": 0.00136298,
        "meta_inclination": 97.6539,
        "meta_ra_of_asc_node": 65.4185,
        "meta_arg_of_pericenter": 249.781,
        "meta_mean_anomaly": 110.1951,
        "meta_ephemeris_type": 0,
        "meta_classification_type": "U",
        "meta_norad_cat_id": 66994,
        "meta_element_set_no": 999,
        "meta_rev_at_epoch": 132,
        "meta_bstar": 0.0002681218,
        "meta_mean_motion_dot": 3.707e-05,
        "meta_mean_motion_ddot": 0,
        "tle_line1": "1 66994U 25292B   25352.92541102  .00003707  00000+0  26812-3 0  9993",
        "tle_line2": "2 66994  97.6539  65.4185 0013629 249.7810 110.1951 15.04579130  1325"
      },
      "geometry": {
        "type": "Point",
        "coordinates": [
          -114.41163360732627,
          -1.4326171889385202
        ]
      }
    },
    {
      "type": "Feature",
      "properties": {
        "norad_id": 66995,
        "name": "2025-292C",
        "group": "last-30-days",
        "lat": -1.8007530878180764,
        "lon": -114.46191734861543,
        "alt_km": 552.2551521519263,
        "timestamp": "2025-12-19T06:59:42.652898+00:00",
        "meta_object_name": "2025-292C",
        "meta_object_id": "2025-292C",
        "meta_epoch": "2025-12-18T22:12:30.022272",
        "meta_mean_motion": 15.04605105,
        "meta_eccentricity": 0.00139339,
        "meta_inclination": 97.6529,
        "meta_ra_of_asc_node": 65.4177,
        "meta_arg_of_pericenter": 250.1779,
        "meta_mean_anomaly": 109.7945,
        "meta_ephemeris_type": 0,
        "meta_classification_type": "U",
        "meta_norad_cat_id": 66995,
        "meta_element_set_no": 999,
        "meta_rev_at_epoch": 132,
        "meta_bstar": 0.00030005727,
        "meta_mean_motion_dot": 4.16e-05,
        "meta_mean_motion_ddot": 0,
        "tle_line1": "1 66995U 25292C   25352.92534748  .00004160  00000+0  30006-3 0  9996",
        "tle_line2": "2 66995  97.6529  65.4177 0013933 250.1779 109.7945 15.04605105  1323"
      },
      "geometry": {
        "type": "Point",
        "coordinates": [
          -114.46191734861543,
          -1.8007530878180764
        ]
      }
    },
    {
      "type": "Feature",
      "properties": {
        "norad_id": 66996,
        "name": "2025-292D",
        "group": "last-30-days",
        "lat": -3.2993261793584767,
        "lon": -114.6638409796134,
        "alt_km": 552.7500727380466,
        "timestamp": "2025-12-19T06:59:42.652909+00:00",
        "meta_object_name": "2025-292D",
        "meta_object_id": "2025-292D",
        "meta_epoch": "2025-12-18T22:12:06.771168",
        "meta_mean_motion": 15.04636444,
        "meta_eccentricity": 0.00130935,
        "meta_inclination": 97.6523,
        "meta_ra_of_asc_node": 65.4174,
        "meta_arg_of_pericenter": 252.8715,
        "meta_mean_anomaly": 107.1078,
        "meta_ephemeris_type": 0,
        "meta_classification_type": "U",
        "meta_norad_cat_id": 66996,
        "meta_element_set_no": 999,
        "meta_rev_at_epoch": 132,
        "meta_bstar": 0.00019415726,
        "meta_mean_motion_dot": 2.671e-05,
        "meta_mean_motion_ddot": 0,
        "tle_line1": "1 66996U 25292D   25352.92507837  .00002671  00000+0  19416-3 0  9993",
        "tle_line2": "2 66996  97.6523  65.4174 0013093 252.8715 107.1078 15.04636444  1320"
      },
      "geometry": {
        "type": "Point",
        "coordinates": [
          -114.6638409796134,
          -3.2993261793584767
        ]
      }
    },
    {
      "type": "Feature",
      "properties": {
        "norad_id": 66997,
        "name": "2025-292E",
        "group": "last-30-days",
        "lat": -5.916541116352658,
        "lon": -115.01490648400893,
        "alt_km": 552.4425396154993,
        "timestamp": "2025-12-19T06:59:42.652919+00:00",
        "meta_object_name": "2025-292E",
        "meta_object_id": "2025-292E",
        "meta_epoch": "2025-12-18T22:11:26.310048",
        "meta_mean_motion": 15.04721694,
        "meta_eccentricity": 0.0013465,
        "meta_inclination": 97.6544,
        "meta_ra_of_asc_node": 65.4202,
        "meta_arg_of_pericenter": 253.7385,
        "meta_mean_anomaly": 106.236,
        "meta_ephemeris_type": 0,
        "meta_classification_type": "U",
        "meta_norad_cat_id": 66997,
        "meta_element_set_no": 999,
        "meta_rev_at_epoch": 131,
        "meta_bstar": 0.00022353023,
        "meta_mean_motion_dot": 3.092e-05,
        "meta_mean_motion_ddot": 0,
        "tle_line1": "1 66997U 25292E   25352.92461007  .00003092  00000+0  22353-3 0  9994",
        "tle_line2": "2 66997  97.6544  65.4202 0013465 253.7385 106.2360 15.04721694  1317"
      },
      "geometry": {
        "type": "Point",
        "coordinates": [
          -115.01490648400893,
          -5.916541116352658
        ]
      }
    }
  ]
}